start=new Date('2023-06-30T00:00:00.000Z').valueOf();
sats=[{"MEAN_MOTION":"15.01262193","DECAY_DATE":null,"OBJECT_NAME":"STARLINK-5967","PERIAPSIS":"561.073","MEAN_ANOMALY":"265.7555","TLE_LINE2":"2 56330  97.6554 180.9437 0002783  94.3987 265.7555 15.01262193  9911","SITE":"AFWTR","MEAN_ELEMENT_THEORY":"SGP4","RCS_SIZE":"LARGE","REF_FRAME":"TEME","CENTER_NAME":"EARTH","EPOCH":"2023-06-29T01:48:24.433056","TLE_LINE1":"1 56330U 23058P   23180.07528279  .00001255  00000-0  10224-3 0  9994","LAUNCH_DATE":"2023-04-27","EPHEMERIS_TYPE":"0","RA_OF_ASC_NODE":"180.9437","ELEMENT_SET_NO":"999","OBJECT_ID":"2023-058P","COUNTRY_CODE":"US","ECCENTRICITY":"0.00027830","MEAN_MOTION_DOT":"0.00001255","INCLINATION":"97.6554","SEMIMAJOR_AXIS":"6941.140","APOAPSIS":"564.937","NORAD_CAT_ID":"56330","REV_AT_EPOCH":"991","CLASSIFICATION_TYPE":"U","GP_ID":"234613765","BSTAR":"0.00010224000000","PERIOD":"95.919","ARG_OF_PERICENTER":"94.3987","TIME_SYSTEM":"UTC","OBJECT_TYPE":"PAYLOAD","FILE":"3945287","MEAN_MOTION_DDOT":"0.0000000000000"},{"FILE":"3945616","MEAN_MOTION_DDOT":"0.0000000000000","PERIOD":"95.919","ARG_OF_PERICENTER":"91.5119","TIME_SYSTEM":"UTC","OBJECT_TYPE":"PAYLOAD","CLASSIFICATION_TYPE":"U","GP_ID":"234621330","BSTAR":"0.00002344300000","ECCENTRICITY":"0.00028560","MEAN_MOTION_DOT":"0.00000242","INCLINATION":"97.6542","SEMIMAJOR_AXIS":"6941.147","APOAPSIS":"564.995","NORAD_CAT_ID":"56331","REV_AT_EPOCH":"997","LAUNCH_DATE":"2023-04-27","RA_OF_ASC_NODE":"181.3498","EPHEMERIS_TYPE":"0","OBJECT_ID":"2023-058Q","ELEMENT_SET_NO":"999","COUNTRY_CODE":"US","REF_FRAME":"TEME","CENTER_NAME":"EARTH","EPOCH":"2023-06-29T11:08:17.200608","TLE_LINE1":"1 56331U 23058Q   23180.46408797  .00000242  00000-0  23443-4 0  9993","OBJECT_NAME":"STARLINK-5991","PERIAPSIS":"561.030","MEAN_ANOMALY":"268.6432","SITE":"AFWTR","TLE_LINE2":"2 56331  97.6542 181.3498 0002856  91.5119 268.6432 15.01259896  9976","MEAN_ELEMENT_THEORY":"SGP4","RCS_SIZE":"LARGE","MEAN_MOTION":"15.01259896","DECAY_DATE":null},{"MEAN_MOTION_DDOT":"0.0000000000000","FILE":"3945825","ARG_OF_PERICENTER":"96.1059","OBJECT_TYPE":"PAYLOAD","TIME_SYSTEM":"UTC","PERIOD":"95.919","GP_ID":"234627229","BSTAR":"0.00001236500000","CLASSIFICATION_TYPE":"U","APOAPSIS":"564.955","REV_AT_EPOCH":"999","NORAD_CAT_ID":"56332","MEAN_MOTION_DOT":"0.00000100","INCLINATION":"97.6551","ECCENTRICITY":"0.00028030","SEMIMAJOR_AXIS":"6941.145","COUNTRY_CODE":"US","LAUNCH_DATE":"2023-04-27","EPHEMERIS_TYPE":"0","RA_OF_ASC_NODE":"181.4743","ELEMENT_SET_NO":"999","OBJECT_ID":"2023-058R","TLE_LINE1":"1 56332U 23058R   23180.60319288  .00000100  00000-0  12365-4 0  9990","EPOCH":"2023-06-29T14:28:35.864832","REF_FRAME":"TEME","CENTER_NAME":"EARTH","SITE":"AFWTR","TLE_LINE2":"2 56332  97.6551 181.4743 0002803  96.1059 264.0485 15.01260663  9991","RCS_SIZE":"LARGE","MEAN_ELEMENT_THEORY":"SGP4","PERIAPSIS":"561.064","MEAN_ANOMALY":"264.0485","OBJECT_NAME":"STARLINK-5093","DECAY_DATE":null,"MEAN_MOTION":"15.01260663"},{"MEAN_MOTION":"15.01266497","DECAY_DATE":null,"TLE_LINE2":"2 56333  97.6532 181.3534 0002569  91.7445 268.4074 15.01266497  9978","SITE":"AFWTR","MEAN_ELEMENT_THEORY":"SGP4","RCS_SIZE":"LARGE","OBJECT_NAME":"STARLINK-5553","PERIAPSIS":"561.209","MEAN_ANOMALY":"268.4074","EPOCH":"2023-06-29T11:05:37.758912","TLE_LINE1":"1 56333U 23058S   23180.46224258  .00001573  00000-0  12703-3 0  9997","REF_FRAME":"TEME","CENTER_NAME":"EARTH","COUNTRY_CODE":"US","EPHEMERIS_TYPE":"0","LAUNCH_DATE":"2023-04-27","RA_OF_ASC_NODE":"181.3534","ELEMENT_SET_NO":"999","OBJECT_ID":"2023-058S","APOAPSIS":"564.775","NORAD_CAT_ID":"56333","REV_AT_EPOCH":"997","ECCENTRICITY":"0.00025690","INCLINATION":"97.6532","MEAN_MOTION_DOT":"0.00001573","SEMIMAJOR_AXIS":"6941.127","GP_ID":"234620739","BSTAR":"0.00012703000000","CLASSIFICATION_TYPE":"U","ARG_OF_PERICENTER":"91.7445","TIME_SYSTEM":"UTC","OBJECT_TYPE":"PAYLOAD","PERIOD":"95.919","FILE":"3945589","MEAN_MOTION_DDOT":"0.0000000000000"},{"SITE":"AFWTR","TLE_LINE2":"2 56334  97.6545 181.3472 0002858  92.4876 267.6675 15.01261623  9975","MEAN_ELEMENT_THEORY":"SGP4","RCS_SIZE":"LARGE","OBJECT_NAME":"STARLINK-5548","MEAN_ANOMALY":"267.6675","PERIAPSIS":"561.023","MEAN_MOTION":"15.01261623","DECAY_DATE":null,"COUNTRY_CODE":"US","EPHEMERIS_TYPE":"0","LAUNCH_DATE":"2023-04-27","RA_OF_ASC_NODE":"181.3472","OBJECT_ID":"2023-058T","ELEMENT_SET_NO":"999","EPOCH":"2023-06-29T11:10:57.026784","TLE_LINE1":"1 56334U 23058T   23180.46593781  .00000482  00000-0  42139-4 0  9993","REF_FRAME":"TEME","CENTER_NAME":"EARTH","GP_ID":"234621044","BSTAR":"0.00004213900000","CLASSIFICATION_TYPE":"U","APOAPSIS":"564.991","NORAD_CAT_ID":"56334","REV_AT_EPOCH":"997","ECCENTRICITY":"0.00028580","MEAN_MOTION_DOT":"0.00000482","INCLINATION":"97.6545","SEMIMAJOR_AXIS":"6941.142","FILE":"3945598","MEAN_MOTION_DDOT":"0.0000000000000","ARG_OF_PERICENTER":"92.4876","TIME_SYSTEM":"UTC","OBJECT_TYPE":"PAYLOAD","PERIOD":"95.919"},{"DECAY_DATE":null,"MEAN_MOTION":"15.01257446","MEAN_ANOMALY":"256.4652","PERIAPSIS":"561.823","OBJECT_NAME":"STARLINK-5559","TLE_LINE2":"2 56335  97.6531 180.6366 0001724 103.6764 256.4652 15.01257446  9864","SITE":"AFWTR","RCS_SIZE":"LARGE","MEAN_ELEMENT_THEORY":"SGP4","REF_FRAME":"TEME","CENTER_NAME":"EARTH","TLE_LINE1":"1 56335U 23058U   23179.72374568  .00000718  00000-0  60509-4 0  9994","EPOCH":"2023-06-28T17:22:11.626752","LAUNCH_DATE":"2023-04-27","RA_OF_ASC_NODE":"180.6366","EPHEMERIS_TYPE":"0","ELEMENT_SET_NO":"999","OBJECT_ID":"2023-058U","COUNTRY_CODE":"US","MEAN_MOTION_DOT":"0.00000718","INCLINATION":"97.6531","ECCENTRICITY":"0.00017240","SEMIMAJOR_AXIS":"6941.155","APOAPSIS":"564.216","REV_AT_EPOCH":"986","NORAD_CAT_ID":"56335","CLASSIFICATION_TYPE":"U","GP_ID":"234608246","BSTAR":"0.00006050900000","PERIOD":"95.920","ARG_OF_PERICENTER":"103.6764","OBJECT_TYPE":"PAYLOAD","TIME_SYSTEM":"UTC","MEAN_MOTION_DDOT":"0.0000000000000","FILE":"3945104"},{"COUNTRY_CODE":"US","ELEMENT_SET_NO":"999","OBJECT_ID":"2023-058V","RA_OF_ASC_NODE":"180.8900","LAUNCH_DATE":"2023-04-27","EPHEMERIS_TYPE":"0","TLE_LINE1":"1 56336U 23058V   23179.99776141  .00000676  00000-0  57235-4 0  9992","EPOCH":"2023-06-28T23:56:46.585824","CENTER_NAME":"EARTH","REF_FRAME":"TEME","RCS_SIZE":"LARGE","MEAN_ELEMENT_THEORY":"SGP4","SITE":"AFWTR","TLE_LINE2":"2 56336  97.6536 180.8900 0002097  91.8249 268.3216 15.01258166  9909","MEAN_ANOMALY":"268.3216","PERIAPSIS":"561.562","OBJECT_NAME":"STARLINK-5562","DECAY_DATE":null,"MEAN_MOTION":"15.01258166","MEAN_MOTION_DDOT":"0.0000000000000","FILE":"3945306","TIME_SYSTEM":"UTC","OBJECT_TYPE":"PAYLOAD","ARG_OF_PERICENTER":"91.8249","PERIOD":"95.920","BSTAR":"0.00005723500000","GP_ID":"234613655","CLASSIFICATION_TYPE":"U","REV_AT_EPOCH":"990","NORAD_CAT_ID":"56336","APOAPSIS":"564.473","SEMIMAJOR_AXIS":"6941.153","MEAN_MOTION_DOT":"0.00000676","INCLINATION":"97.6536","ECCENTRICITY":"0.00020970"},{"REF_FRAME":"TEME","CENTER_NAME":"EARTH","TLE_LINE1":"1 56337U 23058W   23179.72350207  .00000456  00000-0  40091-4 0  9993","EPOCH":"2023-06-28T17:21:50.578848","RA_OF_ASC_NODE":"180.6369","LAUNCH_DATE":"2023-04-27","EPHEMERIS_TYPE":"0","OBJECT_ID":"2023-058W","ELEMENT_SET_NO":"999","COUNTRY_CODE":"US","DECAY_DATE":null,"MEAN_MOTION":"15.01259951","MEAN_ANOMALY":"252.8623","PERIAPSIS":"561.987","OBJECT_NAME":"STARLINK-5561","TLE_LINE2":"2 56337  97.6530 180.6369 0001476 107.2762 252.8623 15.01259951  9861","SITE":"AFWTR","RCS_SIZE":"LARGE","MEAN_ELEMENT_THEORY":"SGP4","PERIOD":"95.919","ARG_OF_PERICENTER":"107.2762","TIME_SYSTEM":"UTC","OBJECT_TYPE":"PAYLOAD","MEAN_MOTION_DDOT":"0.0000000000000","FILE":"3945092","MEAN_MOTION_DOT":"0.00000456","INCLINATION":"97.6530","ECCENTRICITY":"0.00014760","SEMIMAJOR_AXIS":"6941.147","APOAPSIS":"564.037","REV_AT_EPOCH":"986","NORAD_CAT_ID":"56337","CLASSIFICATION_TYPE":"U","GP_ID":"234608987","BSTAR":"0.00004009100000"},{"OBJECT_TYPE":"PAYLOAD","TIME_SYSTEM":"UTC","ARG_OF_PERICENTER":"107.6408","PERIOD":"95.920","FILE":"3945674","MEAN_MOTION_DDOT":"0.0000000000000","NORAD_CAT_ID":"56338","REV_AT_EPOCH":"997","APOAPSIS":"564.260","SEMIMAJOR_AXIS":"6941.174","ECCENTRICITY":"0.00017590","INCLINATION":"97.6538","MEAN_MOTION_DOT":"-0.00000987","BSTAR":"-0.00007230300000","GP_ID":"234623212","CLASSIFICATION_TYPE":"U","EPOCH":"2023-06-29T11:02:57.684768","TLE_LINE1":"1 56338U 23058X   23180.46038987 -.00000987  00000-0 -72303-4 0  9997","CENTER_NAME":"EARTH","REF_FRAME":"TEME","COUNTRY_CODE":"US","ELEMENT_SET_NO":"999","OBJECT_ID":"2023-058X","LAUNCH_DATE":"2023-04-27","RA_OF_ASC_NODE":"181.3546","EPHEMERIS_TYPE":"0","MEAN_MOTION":"15.01251215","DECAY_DATE":null,"MEAN_ELEMENT_THEORY":"SGP4","RCS_SIZE":"LARGE","SITE":"AFWTR","TLE_LINE2":"2 56338  97.6538 181.3546 0001759 107.6408 252.5008 15.01251215  9971","OBJECT_NAME":"STARLINK-5554","MEAN_ANOMALY":"252.5008","PERIAPSIS":"561.818"},{"OBJECT_TYPE":"PAYLOAD","TIME_SYSTEM":"UTC","ARG_OF_PERICENTER":"107.7828","PERIOD":"95.919","FILE":"3945625","MEAN_MOTION_DDOT":"0.0000000000000","NORAD_CAT_ID":"56339","REV_AT_EPOCH":"997","APOAPSIS":"564.017","SEMIMAJOR_AXIS":"6941.146","ECCENTRICITY":"0.00014490","MEAN_MOTION_DOT":"0.00000168","INCLINATION":"97.6521","BSTAR":"0.00001765000000","GP_ID":"234621082","CLASSIFICATION_TYPE":"U","EPOCH":"2023-06-29T10:52:16.797216","TLE_LINE1":"1 56339U 23058Y   23180.45297219  .00000168  00000-0  17650-4 0  9995","CENTER_NAME":"EARTH","REF_FRAME":"TEME","COUNTRY_CODE":"US","OBJECT_ID":"2023-058Y","ELEMENT_SET_NO":"999","EPHEMERIS_TYPE":"0","LAUNCH_DATE":"2023-04-27","RA_OF_ASC_NODE":"181.3636","MEAN_MOTION":"15.01260232","DECAY_DATE":null,"MEAN_ELEMENT_THEORY":"SGP4","RCS_SIZE":"LARGE","TLE_LINE2":"2 56339  97.6521 181.3636 0001449 107.7828 252.3554 15.01260232  9970","SITE":"AFWTR","OBJECT_NAME":"STARLINK-5552","PERIAPSIS":"562.005","MEAN_ANOMALY":"252.3554"}];
